NORAD_CAT_ID,OBJECT_NAME,OBJECT_TYPE,EPOCH,MEAN_MOTION,ECCENTRICITY,INCLINATION,RA_OF_ASC_NODE,ARG_OF_PERICENTER,MEAN_ANOMALY,BSTAR,MEAN_MOTION_DOT,MEAN_MOTION_DDOT,TLE_LINE0,TLE_LINE1,TLE_LINE2,SEMIMAJOR_AXIS,PERIOD,APOGEE,PERIGEE,DECAYED
52624.0,STARLINK-4009,PAYLOAD,2023-12-11 06:47:06,15.08852772,0.0001834,53.2181,347.5655,75.6412,284.4783,-1.8105e-05,-5.76e-06,0.0,0 STARLINK-4009,1 52624U 22052AC  23345.28271430 -.00000576  00000-0 -18105-4 0  9993,2 52624  53.2181 347.5655 0001834  75.6412 284.4783 15.08852772 87665,6917.841,95.437,540.975,538.438,0.0
52624.0,STARLINK-4009,PAYLOAD,2023-12-12 03:27:07,15.08843717,0.0001876,53.2191,343.6993,103.611,256.5092,6.274e-05,7.11e-06,0.0,0 STARLINK-4009,1 52624U 22052AC  23346.14383689  .00000711  00000-0  62740-4 0  9992,2 52624  53.2191 343.6993 0001876 103.6110 256.5092 15.08843717 87797,6917.869,95.437,541.032,538.436,0.0
52624.0,STARLINK-4009,PAYLOAD,2023-12-12 06:37:53,15.08842036,0.0001909,53.2191,343.1051,93.7594,266.3616,8.7694e-05,1.108e-05,0.0,0 STARLINK-4009,1 52624U 22052AC  23346.27631591  .00001108  00000-0  87694-4 0  9990,2 52624  53.2191 343.1051 0001909  93.7594 266.3616 15.08842036 87434,6917.874,95.437,541.06,538.419,0.0
52624.0,STARLINK-4009,PAYLOAD,2023-12-13 06:28:40,15.0884195,0.0001956,53.2194,338.6452,98.5857,261.5357,7.2481e-05,8.66e-06,0.0,0 STARLINK-4009,1 52624U 22052AC  23347.26991553  .00000866  00000-0  72481-4 0  9995,2 52624  53.2194 338.6452 0001956  98.5857 261.5357 15.08841950 87969,6917.874,95.437,541.093,538.386,0.0
52624.0,STARLINK-4009,PAYLOAD,2023-12-14 04:44:04,15.08837978,0.0001972,53.2193,334.4813,102.1095,258.0119,5.8934e-05,6.5e-06,0.0,0 STARLINK-4009,1 52624U 22052AC  23348.19727935  .00000650  00000-0  58934-4 0  9997,2 52624  53.2193 334.4813 0001972 102.1095 258.0119 15.08837978 88106,6917.887,95.438,541.116,538.387,0.0
52624.0,STARLINK-4009,PAYLOAD,2023-12-15 04:34:51,15.08843728,0.000195,53.2188,330.0212,106.1546,253.9661,3.1736e-05,2.17e-06,0.0,0 STARLINK-4009,1 52624U 22052AC  23349.19087826  .00000217  00000-0  31736-4 0  9996,2 52624  53.2188 330.0212 0001950 106.1546 253.9661 15.08843728 87875,6917.869,95.437,541.083,538.385,0.0
52624.0,STARLINK-4009,PAYLOAD,2023-12-16 02:50:17,15.08810829,0.0002184,53.2187,325.8569,111.7593,248.3632,0.00029137,4.348e-05,0.0,0 STARLINK-4009,1 52624U 22052AC  23350.11825415  .00004348  00000-0  29137-3 0  9994,2 52624  53.2187 325.8569 0002184 111.7593 248.3632 15.08810829 88395,6917.97,95.439,541.345,538.324,0.0
52624.0,STARLINK-4009,PAYLOAD,2023-12-16 06:01:03,15.08834244,0.0001788,53.2186,325.2634,92.6731,267.4466,4.8633e-05,4.86e-06,0.0,0 STARLINK-4009,1 52624U 22052AC  23350.25073021  .00000486  00000-0  48633-4 0  9999,2 52624  53.2186 325.2634 0001788  92.6731 267.4466 15.08834244 88418,6917.898,95.438,541.0,538.526,0.0
52624.0,STARLINK-4009,PAYLOAD,2023-12-17 02:41:03,15.08845144,0.0001603,53.2181,321.4001,85.2505,274.867,3.5205e-05,2.72e-06,0.0,0 STARLINK-4009,1 52624U 22052AC  23351.11184756  .00000272  00000-0  35205-4 0  9997,2 52624  53.2181 321.4001 0001603  85.2505 274.8670 15.08845144 88546,6917.865,95.437,540.839,538.621,0.0
52624.0,STARLINK-4009,PAYLOAD,2023-12-17 05:51:50,15.08831708,0.0001883,53.2179,320.8025,85.3598,274.7609,0.00055756,8.595e-05,0.0,0 STARLINK-4009,1 52624U 22052AC  23351.24433410  .00008595  00000-0  55756-3 0  9993,2 52624  53.2179 320.8025 0001883  85.3598 274.7609 15.08831708 88569,6917.906,95.438,541.073,538.468,0.0
52624.0,STARLINK-4009,PAYLOAD,2023-12-18 04:07:13,15.08862883,0.0001587,53.2158,316.6473,93.8866,266.2307,0.00056493,8.72e-05,0.0,0 STARLINK-4009,1 52624U 22052AC  23352.17168024  .00008720  00000-0  56493-3 0  9991,2 52624  53.2158 316.6473 0001587  93.8866 266.2307 15.08862883 88704,6917.81,95.436,540.773,538.578,0.0
52624.0,STARLINK-4009,PAYLOAD,2023-12-19 03:58:00,15.08823302,0.0001091,53.2173,312.1787,94.8224,265.2893,-0.00053298,-8.756e-05,0.0,0 STARLINK-4009,1 52624U 22052AC  23353.16527904 -.00008756  00000-0 -53298-3 0  9998,2 52624  53.2173 312.1787 0001091  94.8224 265.2893 15.08823302 88857,6917.931,95.439,540.551,539.042,0.0
52624.0,STARLINK-4009,PAYLOAD,2023-12-20 02:13:25,15.08827535,0.000159,53.2173,308.011,66.4045,293.7114,-0.00018499,-3.23e-05,0.0,0 STARLINK-4009,1 52624U 22052AC  23354.09265083 -.00003230  00000-0 -18499-3 0  9994,2 52624  53.2173 308.0110 0001590  66.4045 293.7114 15.08827535 88990,6917.918,95.438,540.883,538.684,0.0
52624.0,STARLINK-4009,PAYLOAD,2023-12-21 03:39:34,15.08879521,0.0001476,53.2176,303.2574,108.3345,251.7808,0.0015141,0.00023917,0.0,0 STARLINK-4009,1 52624U 22052AC  23355.15248303  .00023917  00000-0  15141-2 0  9990,2 52624  53.2176 303.2574 0001476 108.3345 251.7808 15.08879521 89151,6917.76,95.435,540.646,538.604,0.0
52624.0,STARLINK-4009,PAYLOAD,2023-12-22 03:30:22,15.08839005,0.0001532,53.2179,298.7943,92.6676,267.4492,0.00013414,1.847e-05,0.0,0 STARLINK-4009,1 52624U 22052AC  23356.14608870  .00001847  00000-0  13414-3 0  9999,2 52624  53.2179 298.7943 0001532  92.6676 267.4492 15.08839005 89300,6917.883,95.438,540.808,538.689,0.0
52624.0,STARLINK-4009,PAYLOAD,2023-12-23 03:21:07,15.08880313,0.0001484,53.2173,294.3357,94.1426,265.9736,0.0011122,0.00017476,0.0,0 STARLINK-4009,1 52624U 22052AC  23357.13967343  .00017476  00000-0  11122-2 0  9990,2 52624  53.2173 294.3357 0001484  94.1426 265.9736 15.08880313 89459,6917.757,95.435,540.649,538.596,0.0
52624.0,STARLINK-4009,PAYLOAD,2023-12-23 04:56:30,15.08879209,0.0001472,53.2174,294.039,84.3443,275.7717,0.00095652,0.00014984,0.0,0 STARLINK-4009,1 52624U 22052AC  23357.20591255  .00014984  00000-0  95652-3 0  9995,2 52624  53.2174 294.0390 0001472  84.3443 275.7717 15.08879209 89080,6917.761,95.435,540.644,538.607,0.0
52624.0,STARLINK-4009,PAYLOAD,2023-12-24 03:11:54,15.08809094,0.0001807,53.2169,289.8762,49.6717,310.4433,0.00098425,0.00015398,0.0,0 STARLINK-4009,1 52624U 22052AC  23358.13327047  .00015398  00000-0  98425-3 0  9995,2 52624  53.2169 289.8762 0001807  49.6717 310.4433 15.08809094 89604,6917.975,95.44,541.09,538.59,0.0
52624.0,STARLINK-4009,PAYLOAD,2023-12-24 19:05:47,15.08808055,0.0001307,53.2169,286.9051,93.308,266.8062,8.6271e-05,1.084e-05,0.0,0 STARLINK-4009,1 52624U 22052AC  23358.79568651  .00001084  00000-0  86271-4 0  9999,2 52624  53.2169 286.9051 0001307  93.3080 266.8062 15.08808055 89706,6917.978,95.44,540.747,538.939,0.0
52624.0,STARLINK-4009,PAYLOAD,2023-12-25 03:02:43,15.08835856,0.000186,53.2165,285.4202,65.6781,294.4405,0.0014678,0.00023147,0.0,0 STARLINK-4009,1 52624U 22052AC  23359.12689355  .00023147  00000-0  14678-2 0  9996,2 52624  53.2165 285.4202 0001860  65.6781 294.4405 15.08835856 89750,6917.893,95.438,541.045,538.471,0.0
52624.0,STARLINK-4009,PAYLOAD,2023-12-25 04:38:06,15.08845874,0.0001421,53.2167,285.1204,93.235,266.8804,0.0025153,0.00039977,0.0,0 STARLINK-4009,1 52624U 22052AC  23359.19313108  .00039977  00000-0  25153-2 0  9991,2 52624  53.2167 285.1204 0001421  93.2350 266.8804 15.08845874 89761,6917.862,95.437,540.71,538.744,0.0
52624.0,STARLINK-4009,PAYLOAD,2023-12-25 18:56:35,15.08845762,0.0001561,53.2176,282.4456,89.2943,270.8228,0.0017148,0.00027113,0.0,0 STARLINK-4009,1 52624U 22052AC  23359.78930013  .00027113  00000-0  17148-2 0  9990,2 52624  53.2176 282.4456 0001561  89.2943 270.8228 15.08845762 89859,6917.863,95.437,540.808,538.648,0.0
52624.0,STARLINK-4009,PAYLOAD,2023-12-26 01:18:08,15.08843435,0.0001434,53.2175,281.2549,91.1838,268.9319,0.0016352,0.00025834,0.0,0 STARLINK-4009,1 52624U 22052AC  23360.05426144  .00025834  00000-0  16352-2 0  9991,2 52624  53.2175 281.2549 0001434  91.1838 268.9319 15.08843435 89890,6917.87,95.437,540.727,538.743,0.0
52624.0,STARLINK-4009,PAYLOAD,2023-12-26 04:28:54,15.08852857,0.0001537,53.2174,280.659,104.3757,255.7405,0.0017937,0.00028384,0.0,0 STARLINK-4009,1 52624U 22052AC  23360.18673953  .00028384  00000-0  17937-2 0  9990,2 52624  53.2174 280.6590 0001537 104.3757 255.7405 15.08852857 89538,6917.841,95.437,540.769,538.643,0.0
52624.0,STARLINK-4009,PAYLOAD,2023-12-26 18:47:22,15.08861975,0.0001224,53.2164,277.9834,94.4074,265.7058,0.0019448,0.00030818,0.0,0 STARLINK-4009,1 52624U 22052AC  23360.78290119  .00030818  00000-0  19448-2 0  9999,2 52624  53.2164 277.9834 0001224  94.4074 265.7058 15.08861975 90001,6917.813,95.436,540.525,538.831,0.0
52624.0,STARLINK-4009,PAYLOAD,2023-12-26 21:58:08,15.08861457,0.0001119,53.2176,277.3874,92.1509,267.9611,0.0018343,0.00029043,0.0,0 STARLINK-4009,1 52624U 22052AC  23360.91538056  .00029043  00000-0  18343-2 0  9990,2 52624  53.2176 277.3874 0001119  92.1509 267.9611 15.08861457 89645,6917.815,95.436,540.454,538.906,0.0
52624.0,STARLINK-4009,PAYLOAD,2023-12-27 01:08:54,15.08862504,0.0001571,53.217,276.7925,114.4164,245.6992,0.0016843,0.00026636,0.0,0 STARLINK-4009,1 52624U 22052AC  23361.04785845  .00026636  00000-0  16843-2 0  9993,2 52624  53.2170 276.7925 0001571 114.4164 245.6992 15.08862504 90041,6917.812,95.436,540.763,538.59,0.0
52624.0,STARLINK-4009,PAYLOAD,2023-12-27 18:38:09,15.08856946,0.0001662,53.2171,273.522,105.0493,255.0683,0.0015605,0.00024646,0.0,0 STARLINK-4009,1 52624U 22052AC  23361.77650102  .00024646  00000-0  15605-2 0  9994,2 52624  53.2171 273.5220 0001662 105.0493 255.0683 15.08856946 90154,6917.829,95.436,540.843,538.544,0.0
52624.0,STARLINK-4009,PAYLOAD,2023-12-27 21:48:55,15.08845978,0.0001216,53.2176,272.9259,111.0357,249.0766,0.00076944,0.00011981,0.0,0 STARLINK-4009,1 52624U 22052AC  23361.90898031  .00011981  00000-0  76944-3 0  9996,2 52624  53.2176 272.9259 0001216 111.0357 249.0766 15.08845978 89791,6917.862,95.437,540.568,538.886,0.0
52624.0,STARLINK-4009,PAYLOAD,2023-12-27 23:24:19,15.08845073,0.0001497,53.2173,272.6285,112.1167,247.9984,0.0005806,8.966e-05,0.0,0 STARLINK-4009,1 52624U 22052AC  23361.97522023  .00008966  00000-0  58060-3 0  9996,2 52624  53.2173 272.6285 0001497 112.1167 247.9984 15.08845073 90186,6917.865,95.437,540.765,538.694,0.0
